[{"OBJECT_NAME":"STARLINK-4503","OBJECT_ID":"2022-101B","EPOCH":"2026-03-09T10:45:37.363104","MEAN_MOTION":15.0884867,"ECCENTRICITY":0.00011758,"INCLINATION":53.2168,"RA_OF_ASC_NODE":75.2052,"ARG_OF_PERICENTER":80.6631,"MEAN_ANOMALY":279.4494,"EPHEMERIS_TYPE":0,"CLASSIFICATION_TYPE":"U","NORAD_CAT_ID":53528,"ELEMENT_SET_NO":999,"REV_AT_EPOCH":19612,"BSTAR":0.00018413302,"MEAN_MOTION_DOT":2.645e-5,"MEAN_MOTION_DDOT":0},{"OBJECT_NAME":"SL-18 R\/B","OBJECT_ID":"2001-007B","EPOCH":"2026-03-09T23:25:11.323200","MEAN_MOTION":15.07301441,"ECCENTRICITY":0.00085554,"INCLINATION":97.6926,"RA_OF_ASC_NODE":87.6817,"ARG_OF_PERICENTER":353.225,"MEAN_ANOMALY":6.886,"EPHEMERIS_TYPE":0,"CLASSIFICATION_TYPE":"U","NORAD_CAT_ID":26703,"ELEMENT_SET_NO":999,"REV_AT_EPOCH":64619,"BSTAR":0.00021543689,"MEAN_MOTION_DOT":3.19e-5,"MEAN_MOTION_DDOT":0}]
